[{"OBJECT_NAME":"STARLINK-1527","OBJECT_ID":"2020-055X","EPOCH":"2026-03-09T12:43:23.528352","MEAN_MOTION":15.30184962,"ECCENTRICITY":0.00013023,"INCLINATION":53.1608,"RA_OF_ASC_NODE":114.6784,"ARG_OF_PERICENTER":108.7364,"MEAN_ANOMALY":251.3778,"EPHEMERIS_TYPE":0,"CLASSIFICATION_TYPE":"U","NORAD_CAT_ID":46048,"ELEMENT_SET_NO":999,"REV_AT_EPOCH":30902,"BSTAR":0.0003945505,"MEAN_MOTION_DOT":0.00011339,"MEAN_MOTION_DDOT":0},{"OBJECT_NAME":"NUSHSAT1","OBJECT_ID":"2025-052B","EPOCH":"2026-03-09T15:31:41.225952","MEAN_MOTION":15.31903202,"ECCENTRICITY":0.0005501,"INCLINATION":97.4095,"RA_OF_ASC_NODE":325.7239,"ARG_OF_PERICENTER":84.7512,"MEAN_ANOMALY":275.4357,"EPHEMERIS_TYPE":0,"CLASSIFICATION_TYPE":"U","NORAD_CAT_ID":63211,"ELEMENT_SET_NO":999,"REV_AT_EPOCH":5488,"BSTAR":0.00074857,"MEAN_MOTION_DOT":0.00023034,"MEAN_MOTION_DDOT":0}]
